#dP2021  5 21 18  0  0.00000000      96 __u+U ITR00 EXT  IAC
## 2158 496800.00000000   900.00000000 59355 0.7500000000000
+  115   C06C07C08C09C10C11C12C13C14C16C19C20C21C22C23C24C25
+        C26C27C28C29C30C32C33C34C35C36C37C38C39C40C41C42C43
+        C44C45C46E01E02E03E04E05E07E08E09E11E12E13E14E15E18
+        E19E21E24E25E26E27E30E31E33E36G01G02G03G04G05G06G07
+        G08G09G10G12G13G14G15G16G17G18G19G20G21G22G23G24G25
+        G26G27G29G30G31G32J01J02J03R01R02R03R04R05R07R08R09
+        R11R12R13R14R15R16R17R18R19R20R21R22R24  0  0  0  0
++        10  9  8  9 10 10  8 10  9 10  9  9  9  9  8  9 10
++         9  8  9 11  7  9  8  9  8  8  8  7 11  7  8 10  9
++        10 10 11  8  8  9  7  8  7  8  8  8  8  7  9  8  8
++         7  8  8  8  8  8  9  7  7  8  8  7  8  7  7  9  8
++         7  8  6  7  7  7  8  7  8  8  7  8  8  7  8  7  8
++         7  7  7  7  8  8  8  9  8  7  9  9  8  9  8  8 11
++         9  8  8  9  8  9  8  9  9  9  9  9  7  0  0  0  0
%c M  cc GPS ccc cccc cccc cccc cccc ccccc ccccc ccccc ccccc
%c cc cc ccc ccc cccc cccc cccc cccc ccccc ccccc ccccc ccccc
%f  0.0000000  0.000000000  0.00000000000  0.000000000000000
%f  0.0000000  0.000000000  0.00000000000  0.000000000000000
%i    0    0    0    0      0      0      0      0         0
%i    0    0    0    0      0      0      0      0         0
/* IAC                                ULTRA-RAPID PREDICTION
/* S/V CLOCKS ARE ALIGNED TO GNSS TIME                      
/* G:C1WC2W R:C1PC2P E:C1XC5X C:C2IC6I J:C1CC2S             
/* PCV:IGS14_2148 OL/AL:FES2004  NONE     YN ORB:CoN CLK:CoN
*  2021 05 21 21 15  0.00000000
PC06 -23530.082529  25908.322100  23637.161817    411.196415
PC07 -14571.126225  37733.746560  13083.744917    156.583788
PC08  -7199.600504  21046.203317 -35675.117820   -890.752118
PC09  -8179.124927  26272.493516  32139.470228    506.715985
PC10  -3645.680906  42256.802199   -511.623161    -39.725599
PC11  11395.928254 -15809.558376  20013.792175    354.262228
PC12  25541.497708  -9608.379671   5823.101195    874.471342
PC13   5126.775271  28679.822470 -30282.720924    269.726714
PC14   8736.370700 -26438.425792   1275.800403    794.015791
PC16 -20940.306019  26205.181078  25540.848241   -851.160001
PC19  -1937.445706  26630.074439   8187.197762    843.404101
PC20 -13152.817654  22987.052062  -8830.414330   -907.231741
PC21  17069.717645  -5268.151480  21454.700463   -939.454581
PC22  10709.558527  14991.965856  20978.081134   -954.715773
PC23 -19979.310650 -19377.464556   2015.232588   -913.084073
PC24  10603.626865 -12384.022428 -22654.777656   -859.773558
PC25  -7894.298939 -22643.618454 -14292.044898   -913.471369
PC26  21195.066610   3538.126304 -17793.301668    903.811063
PC27 -27449.331019   3623.881790   3380.363987    535.443406
PC28 -18872.257080  -8946.308819  18508.301555    -71.696738
PC29   -137.609916  16260.706270 -22688.940655    395.406861
PC30 -19776.821912  14578.668841 -13218.281169    467.827875
PC32 -17030.016553   5448.067733 -21408.220875   -931.075399
PC33   1862.551942 -26634.578546  -8065.029719   -937.394808
PC34  19261.954345 -14796.939259  13750.112482   -668.248126
PC35  18923.994936   8544.825087 -18671.178231   -270.064319
PC36   7015.849378  22746.787164  14591.198499   -726.511524
PC37 -21407.409748  -4904.732023  17243.269941   -888.475076
PC38      0.000000      0.000000      0.000000    150.236992
PC39 -17076.076282  27656.867674  26785.371746     31.239429
PC40 -10561.591829  40792.356327   2945.661916    163.236636
PC41 -10596.002881 -15237.134140 -20785.886232   -944.499415
PC42  13535.914092 -22452.419332   9579.668862   -914.402752
PC43    819.239391 -16459.488479  22512.597755   -740.732279
PC44  27346.325752  -4371.702440  -3604.864964    199.633214
PC45  20046.140689  19283.760890  -2123.194592    446.289733
PC46  -9695.110105  13094.195861  22660.388173    260.385465
PE01 -16272.533110 -19281.874679  15479.885580  -1112.661963
PE02  16309.815999  19160.523949 -15581.508015    220.670022
PE03  15674.996355   8038.099869  23791.585776   -433.418284
PE04 -23890.765139  10401.995486 -14034.473343   -775.814556
PE05  -1864.740482  22016.073662  19708.899984   -279.150280
PE07  18140.086699 -23005.597539  -4166.696384   -540.447963
PE08  23800.747433 -10832.504452  13863.020285   5998.460350
PE09 -17934.807810  23152.877189   4374.650164   5660.068019
PE11 -13646.750821  12301.221592 -23213.616184   5951.625130
PE12 -27932.439271   -202.181847  -9762.065291   5199.207614
PE13  14061.471924 -12051.733568  23094.765299    416.710806
PE14  25181.247096  -3151.340424 -12686.168961  -1439.000866
PE15  27934.370966    121.074988   9806.724898    813.046276
PE18 -24181.162916  16481.653404  -2330.613677  -1575.344410
PE19 -13891.207968  -9957.470275 -24155.485242    282.664109
PE21  -6933.929620 -28720.729301  -1801.220483   -666.211236
PE24  -7505.080247  21263.168566  19152.565792   -912.526499
PE25   6800.680822  28738.492959   1998.871293   -534.525758
PE26  -8855.317962 -17294.872119  22329.831743   1784.031596
PE27   6836.076398 -21920.994271 -18680.677485    -37.358439
PE30  16800.166016  -1138.550563 -24352.073995   2926.877285
PE31 -16501.320447   2278.592785  24473.515539   -481.395783
PE33 -25330.357681 -12203.308258   9235.160201   -468.853152
PE36   8086.401314  17113.211320 -22761.245001   -210.235288
PG01  21788.164297  14562.514266  -5608.087911    682.348233
PG02  -1276.175311 -16446.140615  21462.312724   -606.126760
PG03  12448.395532  17258.495690  15880.473759   -170.302397
PG04  15221.445169   7250.572904  20546.052985   -197.168799
PG05  -5454.346741 -25717.494196  -3170.573894    -42.620742
PG06  11358.301931 -10558.061370  21631.123691     18.114752
PG07  24938.833916   5989.775175  -7474.266525    157.291522
PG08   6556.750415  13760.034727 -21738.156429    -22.083993
PG09  21981.614681  -3201.670670  14521.433098   -346.850988
PG10 -12119.681511  13312.346791 -19318.516504   -126.606546
PG12 -10121.956000 -19764.699407  14424.744216    -44.237019
PG13   3353.115119 -17258.145772 -19999.541223    134.933417
PG14  13076.512230 -12691.173472 -19323.231119     82.519424
PG15  -8878.490127 -13525.891543 -21403.172323   -147.805156
PG16   -548.263876  26285.740328    694.787156   -328.862417
PG17  22687.080328 -13797.908721   -148.409032    446.063273
PG18 -23865.178724  -3091.550772 -11324.273399    349.754216
PG19  19204.881599 -16454.428049   7627.450667      3.066461
PG20 -11995.993633 -22092.907272  -8972.626129    521.955734
PG21  17868.987550  15606.859870 -11710.527056    119.738262
PG22  10022.442915  23623.307479   7413.913976   -608.494582
PG23 -15130.759415   1014.387451 -21826.001099    104.680436
PG24 -19214.297122 -15597.725156 -10406.841673     91.316916
PG25 -15000.496451  -7319.987396  20456.023367    141.492947
PG26  -4788.780054  23625.425035  10780.932547     88.321729
PG27  -5192.491263  18658.652885 -18181.966142   -134.019687
PG29 -21889.214929   1471.314849  14955.423900   -350.986040
PG30  19218.968597  -4954.013692 -17699.004350   -429.065880
PG31  -9124.228776  12450.483474  21559.754960   -118.606872
PG32 -20974.049498  16092.463537   1377.571807     20.745659
PJ01 -26120.247286  31404.177499  -5946.786626   -382.486149
PJ02 -24663.635521  24716.674025  28633.964718      0.020348
PJ03 -34660.491029  18846.908125 -10148.601685     -6.011978
PR01  -7513.910312  23290.364941   7235.492907     79.782706
PR02   5514.066923  11831.637437  21950.810635    479.499546
PR03  13935.093084  -5517.216211  20703.215267     36.356470
PR04  14337.457247 -19565.246976   7932.299126     87.811353
PR05   6931.240502 -22722.370948  -9300.921250     72.170101
PR07 -14058.705623   6127.746314 -20327.092883    -42.443390
PR08 -14286.544560  19641.395069  -7707.391063    -59.110210
PR09 -15598.672179 -19658.648076   4371.105457     -5.983939
PR11  -6698.392889   9319.214997  22791.728551     -5.720667
PR12   6211.044925  21000.476298  13089.777807    230.801339
PR13  15409.720257  19990.742352  -3712.008165    -55.082903
PR14  15497.093900   7003.283389 -19007.688163     64.519266
PR15   6596.279760  -9706.901231 -22628.326135    103.706700
PR16  -7392.208086 -21271.331363 -12127.010057    -15.355835
PR17  25379.530070    -12.924799  -2369.722248    426.016881
PR18  20178.793355  -7033.119981  13981.677714     77.325550
PR19   5355.956496 -10174.321223  22764.233539   -144.623706
PR20 -15831.870586  -7958.519902  18329.789260    -49.511211
PR21 -25490.623016    496.461591   1120.156958   -210.661161
PR22 -19346.531820   7270.391785 -14899.726048   -113.825810
PR24  16620.779529   7837.398833 -17675.653817     43.546285
EOF
